STARLINK-32600          
1 62178U 24225R   26179.58813390  .00002144  00000+0  18739-3 0  9992
2 62178  70.0003 234.9473 0003866 268.0788  91.9928 14.98335552 86737
STARLINK-32584          
1 62179U 24225S   26179.56545507  .00001680  00000+0  14854-3 0  9991
2 62179  70.0003 244.8113 0003655 269.1298  90.9442 14.98336162 86483
STARLINK-32587          
1 62180U 24225T   26179.61968960  .00002562  00000+0  22242-3 0  9991
2 62180  70.0007 244.5780 0004022 268.9666  91.1032 14.98336517 86494
STARLINK-32602          
1 62181U 24225U   26179.57144197  .00003684  00000+0  31635-3 0  9997
2 62181  70.0005 234.8925 0003321 268.9862  91.0916 14.98334726 86732
STARLINK-32565          
1 62182U 24225V   26179.60300123  .00002292  00000+0  19978-3 0  9995
2 62182  70.0006 244.6105 0003317 270.0918  89.9861 14.98335007 86495
STARLINK-32589          
1 62183U 24225W   26179.60286896  .00000703  00000+0  66692-4 0  9997
2 62183  70.0003 245.0077 0003428 271.5060  88.5707 14.98326546 86484
STARLINK-32581          
1 62184U 24225X   26179.55474360  .00002653  00000+0  22999-3 0  9994
2 62184  70.0001 234.8324 0003888 268.9648  91.1066 14.98333210 86738
2024-226A               
1 62185U 24226A   26179.59413667 -.00000095  00000+0  51727-4 0  9994
2 62185  50.0029 221.3677 0056462 185.8612 174.1618 13.60153187 78268
2024-226B               
1 62186U 24226B   26179.60347344 -.00000072  00000+0  10117-3 0  9997
2 62186  50.0046 287.0120 0012337 112.2001 248.0186 13.41502056 77249
TJS-13                  
1 62188U 24227A   26176.37505572  .00000296  00000+0  00000+0 0  9993
2 62188  63.7780  37.8934 6960192 269.4816  17.3989  2.00581169 11417
HAISHAO-1               
1 62190U 24228A   26179.61121902  .00026524  00000+0  26439-3 0  9998
2 62190  42.9806 297.0166 0004692 330.9740  29.0864 15.65122633 89377
STARLINK-32686          
1 62192U 24229A   26179.52170987  .00003303  00000+0  12951-3 0  9992
2 62192  43.0002   1.1757 0001526 270.5772  89.4905 15.27580520 87551
STARLINK-32688          
1 62193U 24229B   26179.53921563  .00017857  00000+0  65660-3 0  9992
2 62193  42.9988   4.7638 0000455 277.4973  82.5827 15.27593091 87519
STARLINK-32684          
1 62194U 24229C   26179.57890285  .00014491  00000+0  53477-3 0  9997
2 62194  43.0029   4.1983 0001611 275.9478  84.1190 15.27597972 88708
STARLINK-32672          
1 62195U 24229D   26179.59303955  .00021513  00000+0  78859-3 0  9997
2 62195  42.9991   4.3042 0002187 278.9862  81.0742 15.27596228 87523
STARLINK-32682          
1 62196U 24229E   26179.12276913  .00016792  00000+0  61829-3 0  9992
2 62196  43.0010 334.3772 0001567 271.5323  88.5349 15.27582207 87826
STARLINK-32663          
1 62197U 24229F   26179.56105797  .00006546  00000+0  24721-3 0  9998
2 62197  43.0030   4.9201 0001282 263.5686  96.5020 15.27577120 87512
STARLINK-32640          
1 62198U 24229G   26179.58532811  .00007441  00000+0  27956-3 0  9990
2 62198  43.0003   4.2433 0001230 232.5679 127.5061 15.27590187 87523
STARLINK-32653          
1 62199U 24229H   26179.54145782  .00005013  00000+0  19152-3 0  9996
2 62199  43.0022 357.8091 0001278 254.6308 105.4402 15.27587258 87594
STARLINK-32647          
1 62200U 24229J   26179.54178967  .00027392  00000+0  10008-2 0  9994
2 62200  42.9990   4.7820 0000365  95.1935 264.8958 15.27595495 87517
STARLINK-32667          
1 62201U 24229K   26179.24425334  .00015970  00000+0  58805-3 0  9992
2 62201  43.0027   5.9876 0001617 273.4174  86.6493 15.27611092 87473
STARLINK-32655          
1 62202U 24229L   26179.48796246  .00002561  00000+0  10254-3 0  9990
2 62202  43.0005   5.2303 0001399 276.5862  83.4830 15.27581636 87507
STARLINK-32665          
1 62203U 24229M   26179.53536055  .00017329  00000+0  63758-3 0  9992
2 62203  42.9991   4.7345 0000705 251.9257 108.1518 15.27590288 87517
STARLINK-32664          
1 62204U 24229N   26179.58334491  .00044176  00000+0  42473-3 0  9999
2 62204  42.9951 345.3675 0028974 306.1201 284.7758 15.65283619  5936
STARLINK-32660          
1 62205U 24229P   26179.18338006  .00009908  00000+0  36904-3 0  9998
2 62205  43.0017 352.5129 0001058 265.5563  94.5168 15.27585582 87629
STARLINK-32448          
1 62206U 24229Q   26179.50966154  .00016993  00000+0  62535-3 0  9997
2 62206  43.0015   4.5357 0001081 231.9253 128.1501 15.27594203 87517
STARLINK-32430          
1 62207U 24229R   26179.54740984  .00012497  00000+0  46271-3 0  9997
2 62207  43.0032   1.3644 0001556 259.7807 100.2869 15.27592047 87557
STARLINK-32675          
1 62208U 24229S   26179.53150883  .00017446  00000+0  64177-3 0  9994
2 62208  42.9964   4.7030 0000610 303.4350  56.6443 15.27591949 87514
STARLINK-32671          
1 62209U 24229T   26179.50209684  .00011617  00000+0  43080-3 0  9990
2 62209  43.0021   5.3343 0001581 266.8078  93.2592 15.27596422 87504
STARLINK-32670          
1 62210U 24229U   26179.52377195  .00017351  00000+0  63740-3 0  9993
2 62210  42.9976   4.6365 0001498 192.0243 168.0573 15.27640311 87518
