OBJECT_NAME,OBJECT_ID,EPOCH,MEAN_MOTION,ECCENTRICITY,INCLINATION,RA_OF_ASC_NODE,ARG_OF_PERICENTER,MEAN_ANOMALY,EPHEMERIS_TYPE,CLASSIFICATION_TYPE,NORAD_CAT_ID,ELEMENT_SET_NO,REV_AT_EPOCH,BSTAR,MEAN_MOTION_DOT,MEAN_MOTION_DDOT
STARLINK-32600,2024-225R,2026-06-28T14:06:54.768960,14.98335552,.00038664,70.0003,234.9473,268.0788,91.9928,0,U,62178,999,8673,.18738867E-3,.2144E-4,0
STARLINK-32584,2024-225S,2026-06-28T13:34:15.318048,14.98336162,.00036558,70.0003,244.8113,269.1298,90.9442,0,U,62179,999,8648,.14854204E-3,.168E-4,0
STARLINK-32587,2024-225T,2026-06-28T14:52:21.181440,14.98336517,.00040226,70.0007,244.5780,268.9666,91.1032,0,U,62180,999,8649,.22241645E-3,.2562E-4,0
STARLINK-32602,2024-225U,2026-06-28T13:42:52.586208,14.98334726,.00033211,70.0005,234.8925,268.9862,91.0916,0,U,62181,999,8673,.31634794E-3,.3684E-4,0
STARLINK-32565,2024-225V,2026-06-28T14:28:19.306272,14.98335007,.0003317,70.0006,244.6105,270.0918,89.9861,0,U,62182,999,8649,.19978426E-3,.2292E-4,0
STARLINK-32589,2024-225W,2026-06-28T14:28:07.878144,14.98326546,.00034286,70.0003,245.0077,271.5060,88.5707,0,U,62183,999,8648,.66692185E-4,.703E-5,0
STARLINK-32581,2024-225X,2026-06-28T13:18:49.847040,14.98333210,.00038884,70.0001,234.8324,268.9648,91.1066,0,U,62184,999,8673,.22999032E-3,.2653E-4,0
2024-226A,2024-226A,2026-06-28T14:15:33.408288,13.60153187,.00564625,50.0029,221.3677,185.8612,174.1618,0,U,62185,999,7826,.51727109E-4,-.95E-6,0
2024-226B,2024-226B,2026-06-28T14:29:00.105216,13.41502056,.00123378,50.0046,287.0120,112.2001,248.0186,0,U,62186,999,7724,.10116642E-3,-.72E-6,0
TJS-13,2024-227A,2026-06-25T09:00:04.814208,2.00581169,.69601928,63.7780,37.8934,269.4816,17.3989,0,U,62188,999,1141,0,.296E-5,0
HAISHAO-1,2024-228A,2026-06-28T14:40:09.323328,15.65122633,.00046923,42.9806,297.0166,330.9740,29.0864,0,U,62190,999,8937,.26439096E-3,.26524E-3,0
STARLINK-32686,2024-229A,2026-06-28T12:31:15.732768,15.27580520,.00015267,43.0002,1.1757,270.5772,89.4905,0,U,62192,999,8755,.12950538E-3,.3303E-4,0
STARLINK-32688,2024-229B,2026-06-28T12:56:28.230432,15.27593091,.00004551,42.9988,4.7638,277.4973,82.5827,0,U,62193,999,8751,.65659527E-3,.17857E-3,0
STARLINK-32684,2024-229C,2026-06-28T13:53:37.206240,15.27597972,.00016118,43.0029,4.1983,275.9478,84.1190,0,U,62194,999,8870,.53476868E-3,.14491E-3,0
STARLINK-32672,2024-229D,2026-06-28T14:13:58.617120,15.27596228,.00021876,42.9991,4.3042,278.9862,81.0742,0,U,62195,999,8752,.7885934E-3,.21513E-3,0
STARLINK-32682,2024-229E,2026-06-28T02:56:47.252832,15.27582207,.00015675,43.0010,334.3772,271.5323,88.5349,0,U,62196,999,8782,.61828907E-3,.16792E-3,0
STARLINK-32663,2024-229F,2026-06-28T13:27:55.408608,15.27577120,.00012828,43.0030,4.9201,263.5686,96.5020,0,U,62197,999,8751,.24720556E-3,.6546E-4,0
STARLINK-32640,2024-229G,2026-06-28T14:02:52.348704,15.27590187,.00012309,43.0003,4.2433,232.5679,127.5061,0,U,62198,999,8752,.27955961E-3,.7441E-4,0
STARLINK-32653,2024-229H,2026-06-28T12:59:41.955648,15.27587258,.00012788,43.0022,357.8091,254.6308,105.4402,0,U,62199,999,8759,.19151963E-3,.5013E-4,0
STARLINK-32647,2024-229J,2026-06-28T13:00:10.627488,15.27595495,.00003656,42.9990,4.7820,95.1935,264.8958,0,U,62200,999,8751,.10007548E-2,.27392E-3,0
STARLINK-32667,2024-229K,2026-06-28T05:51:43.488576,15.27611092,.00016175,43.0027,5.9876,273.4174,86.6493,0,U,62201,999,8747,.58805452E-3,.1597E-3,0
STARLINK-32655,2024-229L,2026-06-28T11:42:39.956544,15.27581636,.00013995,43.0005,5.2303,276.5862,83.4830,0,U,62202,999,8750,.1025435E-3,.2561E-4,0
STARLINK-32665,2024-229M,2026-06-28T12:50:55.151520,15.27590288,.00007057,42.9991,4.7345,251.9257,108.1518,0,U,62203,999,8751,.63757835E-3,.17329E-3,0
STARLINK-32664,2024-229N,2026-06-28T14:00:01.000224,15.65283619,.00289749,42.9951,345.3675,306.1201,284.7758,0,U,62204,999,593,.42473406E-3,.44176E-3,0
STARLINK-32660,2024-229P,2026-06-28T04:24:04.037184,15.27585582,.00010586,43.0017,352.5129,265.5563,94.5168,0,U,62205,999,8762,.36904067E-3,.9908E-4,0
STARLINK-32448,2024-229Q,2026-06-28T12:13:54.757056,15.27594203,.00010813,43.0015,4.5357,231.9253,128.1501,0,U,62206,999,8751,.62534741E-3,.16993E-3,0
STARLINK-32430,2024-229R,2026-06-28T13:08:16.210176,15.27592047,.00015569,43.0032,1.3644,259.7807,100.2869,0,U,62207,999,8755,.46270816E-3,.12497E-3,0
STARLINK-32675,2024-229S,2026-06-28T12:45:22.362912,15.27591949,.00006103,42.9964,4.7030,303.4350,56.6443,0,U,62208,999,8751,.64177493E-3,.17446E-3,0
STARLINK-32671,2024-229T,2026-06-28T12:03:01.166976,15.27596422,.00015816,43.0021,5.3343,266.8078,93.2592,0,U,62209,999,8750,.4308007E-3,.11617E-3,0
STARLINK-32670,2024-229U,2026-06-28T12:34:13.896480,15.27640311,.00014982,42.9976,4.6365,192.0243,168.0573,0,U,62210,999,8751,.63739958E-3,.17351E-3,0
